[
  { "placeId": "the-castilian", "placeName": "The Castilian", "kind": "apartment" },
  { "placeId": "the-block-23rd", "placeName": "The Block on 23rd", "kind": "apartment" },
  { "placeId": "callaway-house", "placeName": "The Callaway House", "kind": "apartment" },
  { "placeId": "26-west", "placeName": "26 West (American Campus)", "kind": "apartment" },
  { "placeId": "regents-west-24th", "placeName": "Regents West at 24th", "kind": "apartment" },
  { "placeId": "regents-west-gateway", "placeName": "Regents West at Gateway", "kind": "apartment" },
  { "placeId": "axis-west-campus", "placeName": "Axis West Campus", "kind": "apartment" },
  { "placeId": "villas-on-guadalupe", "placeName": "Villas on Guadalupe", "kind": "apartment" },
  { "placeId": "skyloft", "placeName": "Skyloft", "kind": "apartment" },
  { "placeId": "nine-at-rio", "placeName": "The Nine at Rio", "kind": "apartment" },
  { "placeId": "nine-at-west", "placeName": "The Nine at West", "kind": "apartment" },
  { "placeId": "21-rio", "placeName": "21 Rio", "kind": "apartment" },
  { "placeId": "university-house", "placeName": "University House (UH)", "kind": "apartment" },
  { "placeId": "rio-west", "placeName": "Rio West", "kind": "apartment" },
  { "placeId": "standard-austin", "placeName": "The Standard at Austin", "kind": "apartment" },
  { "placeId": "ruckus-rio", "placeName": "The Ruckus on Rio", "kind": "apartment" },
  { "placeId": "ruckus-nueces", "placeName": "The Ruckus on Nueces", "kind": "apartment" },
  { "placeId": "texan-vintage-west", "placeName": "Texan & Vintage West", "kind": "apartment" },
  { "placeId": "villas-on-nueces", "placeName": "Villas on Nueces", "kind": "apartment" },
  { "placeId": "2400-nueces", "placeName": "2400 Nueces (UT Off-Campus)", "kind": "apartment" },
  { "placeId": "torre", "placeName": "Torre", "kind": "apartment" },
  { "placeId": "aspen-west-campus", "placeName": "Aspen West Campus", "kind": "apartment" },

  { "placeId": "ballpark-north", "placeName": "Ballpark North", "kind": "apartment" },
  { "placeId": "ballpark-south", "placeName": "Ballpark South", "kind": "apartment" },
  { "placeId": "university-estates", "placeName": "University Estates Riverside", "kind": "apartment" },
  { "placeId": "connection-athens", "placeName": "The Connection at Athens", "kind": "apartment" },
  { "placeId": "the-quad", "placeName": "The Quad", "kind": "apartment" },
  { "placeId": "town-lake-apartments", "placeName": "Town Lake Apartments", "kind": "apartment" },
  { "placeId": "axis-east-riverside", "placeName": "Axis East Riverside", "kind": "apartment" },
  { "placeId": "nine-at-riverside", "placeName": "The Nine at Riverside", "kind": "apartment" },

  { "placeId": "jester-east", "placeName": "Jester East", "kind": "dorm" },
  { "placeId": "jester-west", "placeName": "Jester West", "kind": "dorm" },
  { "placeId": "san-jac", "placeName": "San Jacinto Residence Hall", "kind": "dorm" },
  { "placeId": "kinsolving", "placeName": "Kinsolving", "kind": "dorm" },
  { "placeId": "carothers", "placeName": "Carothers", "kind": "dorm" },
  { "placeId": "moore-hill", "placeName": "Moore-Hill", "kind": "dorm" },
  { "placeId": "duren", "placeName": "Duren", "kind": "dorm" },
  { "placeId": "littlefield", "placeName": "Littlefield", "kind": "dorm" },
  { "placeId": "andrews", "placeName": "Andrews", "kind": "dorm" },
  { "placeId": "blanton", "placeName": "Blanton", "kind": "dorm" },
  { "placeId": "brackenridge", "placeName": "Brackenridge", "kind": "dorm" },
  { "placeId": "creekside", "placeName": "Creekside", "kind": "dorm" },
  { "placeId": "whitis-court", "placeName": "Whitis Court", "kind": "dorm" },

  { "placeId": "pcl", "placeName": "Perry-Castañeda Library (PCL)", "kind": "study" },
  { "placeId": "life-science-library", "placeName": "Life Science Library", "kind": "study" },
  { "placeId": "architecture-library", "placeName": "Architecture Library (Battle Hall)", "kind": "study" },
  { "placeId": "fine-arts-library", "placeName": "Fine Arts Library", "kind": "study" },
  { "placeId": "eer-library", "placeName": "Engineering Library (EER)", "kind": "study" },
  { "placeId": "texas-union", "placeName": "Texas Union Study Lounges", "kind": "study" },
  { "placeId": "welch-atrium", "placeName": "Welch Hall Atrium", "kind": "study" },

  { "placeId": "lucky-lab", "placeName": "Lucky Lab Coffee Co.", "kind": "coffee" },
  { "placeId": "medici-guad", "placeName": "Caffe Medici (Guadalupe)", "kind": "coffee" },
  { "placeId": "starbucks-union", "placeName": "Starbucks (Texas Union)", "kind": "coffee" },
  { "placeId": "kerbey-24th", "placeName": "Kerbey Lane Café (24th)", "kind": "coffee" },
  { "placeId": "spider-house", "placeName": "Spider House Café", "kind": "coffee" },
  { "placeId": "epoch-north-loop", "placeName": "Epoch Coffee (North Loop)", "kind": "coffee" },

  { "placeId": "gregory-gym", "placeName": "Gregory Gym (Greg)", "kind": "gym" },
  { "placeId": "recsports-center", "placeName": "RecSports Center (RSC)", "kind": "gym" },
  { "placeId": "wright-whitaker", "placeName": "Wright-Whitaker Sports Complex (Intramurals)", "kind": "gym" },
  { "placeId": "clark-field", "placeName": "Clark Field", "kind": "gym" },
  { "placeId": "waterloo-park", "placeName": "Waterloo Park", "kind": "social" },
  { "placeId": "pease-park", "placeName": "Pease Park", "kind": "social" },

  { "placeId": "heb-riverside", "placeName": "H‑E‑B (Riverside)", "kind": "food" },
  { "placeId": "heb-hancock", "placeName": "H‑E‑B (Hancock Center)", "kind": "food" },
  { "placeId": "target-dobie", "placeName": "Target (Dobie Center)", "kind": "food" },
  { "placeId": "trader-joes", "placeName": "Trader Joe’s (Downtown)", "kind": "food" },
  { "placeId": "wheatsville", "placeName": "Wheatsville Co‑op", "kind": "food" },
  { "placeId": "plaza-saltillo", "placeName": "Plaza Saltillo (Whole Foods & more)", "kind": "food" },
  { "placeId": "pluckers", "placeName": "Pluckers Wing Bar (The Drag)", "kind": "food" },
  { "placeId": "roppolos", "placeName": "Roppolo’s Pizzeria (The Drag)", "kind": "food" },
  { "placeId": "torchys", "placeName": "Torchy’s Tacos (The Drag)", "kind": "food" },
  { "placeId": "halal-bros", "placeName": "Halal Bros (The Drag)", "kind": "food" },
  { "placeId": "madam-mams", "placeName": "Madam Mam’s (The Drag)", "kind": "food" }
] 